[{"OBJECT_NAME":"FLOCK 4G-13","OBJECT_ID":"2025-009N","EPOCH":"2026-03-09T16:57:12.071808","MEAN_MOTION":15.32770015,"ECCENTRICITY":0.0003801,"INCLINATION":97.4019,"RA_OF_ASC_NODE":151.0918,"ARG_OF_PERICENTER":292.7207,"MEAN_ANOMALY":67.3633,"EPHEMERIS_TYPE":0,"CLASSIFICATION_TYPE":"U","NORAD_CAT_ID":62621,"ELEMENT_SET_NO":999,"REV_AT_EPOCH":6370,"BSTAR":0.0016695386,"MEAN_MOTION_DOT":0.00053076,"MEAN_MOTION_DDOT":0},{"OBJECT_NAME":"STARLINK-33725","OBJECT_ID":"2025-087W","EPOCH":"2026-03-09T16:58:04.198656","MEAN_MOTION":15.3017787,"ECCENTRICITY":0.0001106,"INCLINATION":53.1574,"RA_OF_ASC_NODE":219.3748,"ARG_OF_PERICENTER":58.29,"MEAN_ANOMALY":301.8208,"EPHEMERIS_TYPE":0,"CLASSIFICATION_TYPE":"U","NORAD_CAT_ID":63717,"ELEMENT_SET_NO":999,"REV_AT_EPOCH":4920,"BSTAR":0.0015649441,"MEAN_MOTION_DOT":0.00046247,"MEAN_MOTION_DDOT":0}]
